NORAD_CAT_ID,OBJECT_NAME,OBJECT_TYPE,EPOCH,MEAN_MOTION,ECCENTRICITY,INCLINATION,RA_OF_ASC_NODE,ARG_OF_PERICENTER,MEAN_ANOMALY,BSTAR,MEAN_MOTION_DOT,MEAN_MOTION_DDOT,TLE_LINE0,TLE_LINE1,TLE_LINE2,SEMIMAJOR_AXIS,PERIOD,APOGEE,PERIGEE,DECAYED
52990.0,STARLINK-4286,PAYLOAD,2023-06-13 10:51:22,15.08833592,0.0001079,53.2173,274.3594,80.6916,279.4198,-1.61e-06,-3.13e-06,0.0,0 STARLINK-4286,1 52990U 22076E   23164.45234775 -.00000313  00000-0 -16100-5 0  9997,2 52990  53.2173 274.3594 0001079  80.6916 279.4198 15.08833592 52178,6917.9,95.438,540.511,539.019,0.0
52990.0,STARLINK-4286,PAYLOAD,2023-06-14 07:31:23,15.08831532,0.0001139,53.2181,270.4938,86.3629,273.7493,8.48e-05,1.062e-05,0.0,0 STARLINK-4286,1 52990U 22076E   23165.31346792  .00001062  00000-0  84800-4 0  9997,2 52990  53.2181 270.4938 0001139  86.3629 273.7493 15.08831532 51836,6917.906,95.438,540.559,538.983,0.0
52990.0,STARLINK-4286,PAYLOAD,2023-06-14 23:25:14,15.08838638,0.0001094,53.2173,267.5203,76.7754,283.336,0.00011171,1.49e-05,0.0,0 STARLINK-4286,1 52990U 22076E   23165.97586266  .00001490  00000-0  11171-3 0  9996,2 52990  53.2173 267.5203 0001094  76.7754 283.3360 15.08838638 52409,6917.885,95.438,540.506,538.993,0.0
52990.0,STARLINK-4286,PAYLOAD,2023-06-15 10:32:57,15.08832557,0.000143,53.2185,265.4393,113.0765,247.0378,-2.3041e-05,-6.55e-06,0.0,0 STARLINK-4286,1 52990U 22076E   23166.43955161 -.00000655  00000-0 -23041-4 0  9996,2 52990  53.2185 265.4393 0001430 113.0765 247.0378 15.08832557 52477,6917.903,95.438,540.757,538.779,0.0
52990.0,STARLINK-4286,PAYLOAD,2023-06-15 12:08:20,15.08832361,0.000146,53.2186,265.142,115.0389,245.0755,-1.7949e-05,-5.74e-06,0.0,0 STARLINK-4286,1 52990U 22076E   23166.50579181 -.00000574  00000-0 -17949-4 0  9998,2 52990  53.2186 265.1420 0001460 115.0389 245.0755 15.08832361 52013,6917.904,95.438,540.779,538.759,0.0
52990.0,STARLINK-4286,PAYLOAD,2023-06-16 10:23:43,15.08849261,0.0001236,53.2175,260.9791,101.4392,258.6739,9.0627e-05,1.155e-05,0.0,0 STARLINK-4286,1 52990U 22076E   23167.43313899  .00001155  00000-0  90627-4 0  9991,2 52990  53.2175 260.9791 0001236 101.4392 258.6739 15.08849261 52625,6917.852,95.437,540.572,538.862,0.0
52990.0,STARLINK-4286,PAYLOAD,2023-06-16 11:59:06,15.08847418,0.0001498,53.2176,260.6807,98.211,261.9052,0.00010355,1.361e-05,0.0,0 STARLINK-4286,1 52990U 22076E   23167.49938007  .00001361  00000-0  10355-3 0  9999,2 52990  53.2176 260.6807 0001498  98.2110 261.9052 15.08847418 52168,6917.858,95.437,540.759,538.686,0.0
52990.0,STARLINK-4286,PAYLOAD,2023-06-16 15:09:52,15.08855814,0.0001297,53.2184,260.0872,99.246,260.8679,0.00015111,2.119e-05,0.0,0 STARLINK-4286,1 52990U 22076E   23167.63185195  .00002119  00000-0  15111-3 0  9994,2 52990  53.2184 260.0872 0001297  99.2460 260.8679 15.08855814 52655,6917.832,95.437,540.594,538.8,0.0
52990.0,STARLINK-4286,PAYLOAD,2023-06-16 16:45:14,15.0885904,0.0001188,53.217,259.7883,102.4105,257.702,0.00016397,2.324e-05,0.0,0 STARLINK-4286,1 52990U 22076E   23167.69808818  .00002324  00000-0  16397-3 0  9999,2 52990  53.2170 259.7883 0001188 102.4105 257.7020 15.08859040 52198,6917.822,95.436,540.509,538.865,0.0
52990.0,STARLINK-4286,PAYLOAD,2023-06-16 23:06:48,15.08836045,0.0001328,53.2168,258.5988,76.0972,284.0168,8.8466e-05,1.12e-05,0.0,0 STARLINK-4286,1 52990U 22076E   23167.96306454  .00001120  00000-0  88466-4 0  9998,2 52990  53.2168 258.5988 0001328  76.0972 284.0168 15.08836045 52705,6917.892,95.438,540.676,538.839,0.0
52990.0,STARLINK-4286,PAYLOAD,2023-06-17 07:03:46,15.08814478,0.0001147,53.2171,257.1122,79.9142,280.198,-8.2751e-05,-1.604e-05,0.0,0 STARLINK-4286,1 52990U 22076E   23168.29428648 -.00001604  00000-0 -82751-4 0  9995,2 52990  53.2171 257.1122 0001147  79.9142 280.1980 15.08814478 52754,6917.958,95.439,540.617,539.03,0.0
52990.0,STARLINK-4286,PAYLOAD,2023-06-17 15:00:42,15.08821273,0.0001221,53.2169,255.6245,76.4105,283.7023,-7.0859e-05,-1.415e-05,0.0,0 STARLINK-4286,1 52990U 22076E   23168.62548626 -.00001415  00000-0 -70859-4 0  9997,2 52990  53.2169 255.6245 0001221  76.4105 283.7023 15.08821273 52808,6917.938,95.439,540.647,538.958,0.0
52990.0,STARLINK-4286,PAYLOAD,2023-06-17 22:57:37,15.08830009,0.0001207,53.2172,254.1379,73.8846,286.2279,6.0279e-07,-2.78e-06,0.0,0 STARLINK-4286,1 52990U 22076E   23168.95668139 -.00000278  00000-0  60279-6 0  9997,2 52990  53.2172 254.1379 0001207  73.8846 286.2279 15.08830009 52854,6917.911,95.438,540.611,538.941,0.0
52990.0,STARLINK-4286,PAYLOAD,2023-06-18 05:19:09,15.08838529,0.0001234,53.2168,252.9485,71.4117,288.7009,-1.611e-05,-5.44e-06,0.0,0 STARLINK-4286,1 52990U 22076E   23169.22163790 -.00000544  00000-0 -16110-4 0  9991,2 52990  53.2168 252.9485 0001234  71.4117 288.7009 15.08838529 52895,6917.885,95.438,540.604,538.896,0.0
52990.0,STARLINK-4286,PAYLOAD,2023-06-18 11:40:41,15.08843621,0.0001195,53.2169,251.7592,72.8708,287.2415,5.6658e-05,6.14e-06,0.0,0 STARLINK-4286,1 52990U 22076E   23169.48659307  .00000614  00000-0  56658-4 0  9990,2 52990  53.2169 251.7592 0001195  72.8708 287.2415 15.08843621 52466,6917.869,95.437,540.561,538.908,0.0
52990.0,STARLINK-4286,PAYLOAD,2023-06-19 05:09:55,15.08851919,0.0001335,53.2157,248.4885,62.5942,297.5186,-1.2545e-05,-4.88e-06,0.0,0 STARLINK-4286,1 52990U 22076E   23170.21522869 -.00000488  00000-0 -12545-4 0  9993,2 52990  53.2157 248.4885 0001335  62.5942 297.5186 15.08851919 52573,6917.844,95.437,540.632,538.785,0.0
52990.0,STARLINK-4286,PAYLOAD,2023-06-19 22:39:10,15.08847611,0.0001235,53.2154,245.2184,59.0091,301.1022,0.00026826,3.985e-05,0.0,0 STARLINK-4286,1 52990U 22076E   23170.94387246  .00003985  00000-0  26826-3 0  9990,2 52990  53.2154 245.2184 0001235  59.0091 301.1022 15.08847611 53152,6917.857,95.437,540.576,538.868,0.0
52990.0,STARLINK-4286,PAYLOAD,2023-06-20 11:22:15,15.08844477,0.0001527,53.2164,242.841,58.9531,301.1611,7.733e-05,9.43e-06,0.0,0 STARLINK-4286,1 52990U 22076E   23171.47379333  .00000943  00000-0  77330-4 0  9995,2 52990  53.2164 242.8410 0001527  58.9531 301.1611 15.08844477 52766,6917.867,95.437,540.788,538.675,0.0
52990.0,STARLINK-4286,PAYLOAD,2023-06-21 11:13:02,15.08844367,0.0001158,53.2173,238.3789,71.3306,288.7812,4.1938e-05,3.8e-06,0.0,0 STARLINK-4286,1 52990U 22076E   23172.46739121  .00000380  00000-0  41938-4 0  9990,2 52990  53.2173 238.3789 0001158  71.3306 288.7812 15.08844367 52912,6917.867,95.437,540.533,538.931,0.0
52990.0,STARLINK-4286,PAYLOAD,2023-06-22 11:03:49,15.08838465,0.000103,53.2162,233.9179,72.6191,287.4913,9.7072e-05,1.257e-05,0.0,0 STARLINK-4286,1 52990U 22076E   23173.46099337  .00001257  00000-0  97072-4 0  9993,2 52990  53.2162 233.9179 0001030  72.6191 287.4913 15.08838465 53538,6917.885,95.438,540.463,539.038,0.0
52990.0,STARLINK-4286,PAYLOAD,2023-06-23 20:26:55,15.08847511,9.31e-05,53.2155,227.6741,79.2069,280.9028,-9.4263e-05,-1.788e-05,0.0,0 STARLINK-4286,1 52990U 22076E   23174.85203251 -.00001788  00000-0 -94263-4 0  9999,2 52990  53.2155 227.6741 0000931  79.2069 280.9028 15.08847511 53741,6917.857,95.437,540.366,539.078,0.0
52990.0,STARLINK-4286,PAYLOAD,2023-06-24 07:34:38,15.08832554,0.0001034,53.2163,225.5929,83.3871,276.7239,1.0554e-05,-1.2e-06,0.0,0 STARLINK-4286,1 52990U 22076E   23175.31572210 -.00000120  00000-0  10554-4 0  9994,2 52990  53.2163 225.5929 0001034  83.3871 276.7239 15.08832554 53813,6917.903,95.438,540.483,539.053,0.0
52990.0,STARLINK-4286,PAYLOAD,2023-06-25 02:39:15,15.08839877,0.0001046,53.2158,222.0241,85.0526,275.0586,5.3296e-05,5.61e-06,0.0,0 STARLINK-4286,1 52990U 22076E   23176.11059729  .00000561  00000-0  53296-4 0  9996,2 52990  53.2158 222.0241 0001046  85.0526 275.0586 15.08839877 53930,6917.881,95.438,540.469,539.022,0.0
52990.0,STARLINK-4286,PAYLOAD,2023-06-25 12:11:33,15.08847433,0.0001088,53.2156,220.2394,83.7703,276.3413,9.7831e-05,1.27e-05,0.0,0 STARLINK-4286,1 52990U 22076E   23176.50803134  .00001270  00000-0  97831-4 0  9997,2 52990  53.2156 220.2394 0001088  83.7703 276.3413 15.08847433 53991,6917.858,95.437,540.475,538.97,0.0
52990.0,STARLINK-4286,PAYLOAD,2023-06-25 20:08:29,15.08843843,0.000115,53.2158,218.7519,81.748,278.3642,2.3035e-05,7.9e-07,0.0,0 STARLINK-4286,1 52990U 22076E   23176.83923527  .00000079  00000-0  23035-4 0  9993,2 52990  53.2158 218.7519 0001150  81.7480 278.3642 15.08843843 54048,6917.869,95.437,540.529,538.938,0.0
52990.0,STARLINK-4286,PAYLOAD,2023-06-26 19:59:17,15.08838494,0.0001147,53.2154,214.2914,86.6268,273.4856,5.0274e-05,5.12e-06,0.0,0 STARLINK-4286,1 52990U 22076E   23177.83284004  .00000512  00000-0  50274-4 0  9991,2 52990  53.2154 214.2914 0001147  86.6268 273.4856 15.08838494 54193,6917.885,95.438,540.543,538.957,0.0
52990.0,STARLINK-4286,PAYLOAD,2023-06-28 02:11:36,15.08838244,0.0001181,53.2156,208.6417,87.1499,272.9628,6.0015e-05,6.67e-06,0.0,0 STARLINK-4286,1 52990U 22076E   23179.09139995  .00000667  00000-0  60015-4 0  9994,2 52990  53.2156 208.6417 0001181  87.1499 272.9628 15.08838244 54385,6917.886,95.438,540.568,538.934,0.0
52990.0,STARLINK-4286,PAYLOAD,2023-06-29 09:59:19,15.08837002,0.000125,53.2158,202.6934,91.0376,269.0759,3.7301e-05,3.06e-06,0.0,0 STARLINK-4286,1 52990U 22076E   23180.41620221  .00000306  00000-0  37301-4 0  9991,2 52990  53.2158 202.6934 0001250  91.0376 269.0759 15.08837002 54585,6917.89,95.438,540.619,538.89,0.0
52990.0,STARLINK-4286,PAYLOAD,2023-06-30 17:47:02,15.08837164,0.00012,53.2155,196.7466,86.9946,273.1183,-1.6217e-06,-3.14e-06,0.0,0 STARLINK-4286,1 52990U 22076E   23181.74100416 -.00000314  00000-0 -16217-5 0  9992,2 52990  53.2155 196.7466 0001200  86.9946 273.1183 15.08837164 54784,6917.889,95.438,540.584,538.924,0.0
52990.0,STARLINK-4286,PAYLOAD,2023-07-01 23:59:22,15.08837116,0.0001171,53.2157,191.0966,87.1646,272.948,4.3881e-05,4.11e-06,0.0,0 STARLINK-4286,1 52990U 22076E   23182.99956558  .00000411  00000-0  43881-4 0  9998,2 52990  53.2157 191.0966 0001171  87.1646 272.9480 15.08837116 54971,6917.889,95.438,540.564,538.944,0.0
